CCSDS_OMM_VERS = 2.0
CREATION_DATE  = 
ORIGINATOR     = 

OBJECT_NAME    = ARIANE 5 R/B
OBJECT_ID      = 2004-049H
CENTER_NAME    = EARTH
REF_FRAME      = TEME
TIME_SYSTEM    = UTC
MEAN_ELEMENT_THEORY = SGP/SGP4

EPOCH          = 2025-11-13T09:48:37.677024
MEAN_MOTION    = 14.84924373
ECCENTRICITY   = .0084862
INCLINATION    = 98.2512
RA_OF_ASC_NODE = 116.6432
ARG_OF_PERICENTER = 8.7971
MEAN_ANOMALY   = 351.4706

EPHEMERIS_TYPE = 0
CLASSIFICATION_TYPE = U
NORAD_CAT_ID   = 28499
ELEMENT_SET_NO = 999
REV_AT_EPOCH   = 12853
BSTAR          = .2608E-3
MEAN_MOTION_DOT = .2303E-4
MEAN_MOTION_DDOT = 0

CCSDS_OMM_VERS = 2.0
CREATION_DATE  = 
ORIGINATOR     = 

OBJECT_NAME    = CZ-2D R/B
OBJECT_ID      = 2005-024B
CENTER_NAME    = EARTH
REF_FRAME      = TEME
TIME_SYSTEM    = UTC
MEAN_ELEMENT_THEORY = SGP/SGP4

EPOCH          = 2025-11-13T23:16:32.803968
MEAN_MOTION    = 15.51341503
ECCENTRICITY   = .00082247
INCLINATION    = 97.3662
RA_OF_ASC_NODE = 324.7014
ARG_OF_PERICENTER = 87.1384
MEAN_ANOMALY   = 273.0810

EPHEMERIS_TYPE = 0
CLASSIFICATION_TYPE = U
NORAD_CAT_ID   = 28738
ELEMENT_SET_NO = 999
REV_AT_EPOCH   = 12179
BSTAR          = .87106667E-3
MEAN_MOTION_DOT = .51413E-3
MEAN_MOTION_DDOT = 0

CCSDS_OMM_VERS = 2.0
CREATION_DATE  = 
ORIGINATOR     = 

OBJECT_NAME    = ALOS (DAICHI)
OBJECT_ID      = 2006-002A
CENTER_NAME    = EARTH
REF_FRAME      = TEME
TIME_SYSTEM    = UTC
MEAN_ELEMENT_THEORY = SGP/SGP4

EPOCH          = 2025-11-13T19:45:24.586272
MEAN_MOTION    = 14.69354654
ECCENTRICITY   = .00010321
INCLINATION    = 98.1040
RA_OF_ASC_NODE = 269.5245
ARG_OF_PERICENTER = 53.6685
MEAN_ANOMALY   = 306.4616

EPHEMERIS_TYPE = 0
CLASSIFICATION_TYPE = U
NORAD_CAT_ID   = 28931
ELEMENT_SET_NO = 999
REV_AT_EPOCH   = 5646
BSTAR          = .81914454E-3
MEAN_MOTION_DOT = .4794E-4
MEAN_MOTION_DDOT = 0

CCSDS_OMM_VERS = 2.0
CREATION_DATE  = 
ORIGINATOR     = 

OBJECT_NAME    = H-2A R/B
OBJECT_ID      = 2006-002B
CENTER_NAME    = EARTH
REF_FRAME      = TEME
TIME_SYSTEM    = UTC
MEAN_ELEMENT_THEORY = SGP/SGP4

EPOCH          = 2025-11-13T20:09:50.611968
MEAN_MOTION    = 15.13787214
ECCENTRICITY   = .00544957
INCLINATION    = 98.2299
RA_OF_ASC_NODE = 90.2511
ARG_OF_PERICENTER = 275.2065
MEAN_ANOMALY   = 84.2947

EPHEMERIS_TYPE = 0
CLASSIFICATION_TYPE = U
NORAD_CAT_ID   = 28932
ELEMENT_SET_NO = 999
REV_AT_EPOCH   = 7689
BSTAR          = .99605E-3
MEAN_MOTION_DOT = .18601E-3
MEAN_MOTION_DDOT = 0

CCSDS_OMM_VERS = 2.0
CREATION_DATE  = 
ORIGINATOR     = 

OBJECT_NAME    = RESURS-DK 1
OBJECT_ID      = 2006-021A
CENTER_NAME    = EARTH
REF_FRAME      = TEME
TIME_SYSTEM    = UTC
MEAN_ELEMENT_THEORY = SGP/SGP4

EPOCH          = 2025-11-13T14:09:34.194240
MEAN_MOTION    = 15.11930723
ECCENTRICITY   = .0007149
INCLINATION    = 69.9326
RA_OF_ASC_NODE = 177.1573
ARG_OF_PERICENTER = 283.5526
MEAN_ANOMALY   = 76.4842

EPHEMERIS_TYPE = 0
CLASSIFICATION_TYPE = U
NORAD_CAT_ID   = 29228
ELEMENT_SET_NO = 999
REV_AT_EPOCH   = 6997
BSTAR          = .40399E-3
MEAN_MOTION_DOT = .6841E-4
MEAN_MOTION_DDOT = 0

CCSDS_OMM_VERS = 2.0
CREATION_DATE  = 
ORIGINATOR     = 

OBJECT_NAME    = CZ-4B R/B
OBJECT_ID      = 2006-046C
CENTER_NAME    = EARTH
REF_FRAME      = TEME
TIME_SYSTEM    = UTC
MEAN_ELEMENT_THEORY = SGP/SGP4

EPOCH          = 2025-11-13T14:07:17.306400
MEAN_MOTION    = 15.15465692
ECCENTRICITY   = .0033097
INCLINATION    = 97.5786
RA_OF_ASC_NODE = 357.8070
ARG_OF_PERICENTER = 311.4528
MEAN_ANOMALY   = 48.3862

EPHEMERIS_TYPE = 0
CLASSIFICATION_TYPE = U
NORAD_CAT_ID   = 29507
ELEMENT_SET_NO = 999
REV_AT_EPOCH   = 4245
BSTAR          = .65631E-3
MEAN_MOTION_DOT = .1253E-3
MEAN_MOTION_DDOT = 0

CCSDS_OMM_VERS = 2.0
CREATION_DATE  = 
ORIGINATOR     = 

OBJECT_NAME    = CZ-2C R/B
OBJECT_ID      = 2007-010B
CENTER_NAME    = EARTH
REF_FRAME      = TEME
TIME_SYSTEM    = UTC
MEAN_ELEMENT_THEORY = SGP/SGP4

EPOCH          = 2025-11-13T18:18:04.989600
MEAN_MOTION    = 14.20192560
ECCENTRICITY   = .00579184
INCLINATION    = 98.3961
RA_OF_ASC_NODE = 71.8739
ARG_OF_PERICENTER = 271.2751
MEAN_ANOMALY   = 88.1791

EPHEMERIS_TYPE = 0
CLASSIFICATION_TYPE = U
NORAD_CAT_ID   = 31114
ELEMENT_SET_NO = 999
REV_AT_EPOCH   = 96326
BSTAR          = .20018042E-3
MEAN_MOTION_DOT = .393E-5
MEAN_MOTION_DDOT = 0

CCSDS_OMM_VERS = 2.0
CREATION_DATE  = 
ORIGINATOR     = 

OBJECT_NAME    = COSMO-SKYMED 1
OBJECT_ID      = 2007-023A
CENTER_NAME    = EARTH
REF_FRAME      = TEME
TIME_SYSTEM    = UTC
MEAN_ELEMENT_THEORY = SGP/SGP4

EPOCH          = 2025-11-13T22:51:53.719776
MEAN_MOTION    = 14.95474510
ECCENTRICITY   = .000144
INCLINATION    = 97.8863
RA_OF_ASC_NODE = 143.1686
ARG_OF_PERICENTER = 82.1030
MEAN_ANOMALY   = 278.0354

EPHEMERIS_TYPE = 0
CLASSIFICATION_TYPE = U
NORAD_CAT_ID   = 31598
ELEMENT_SET_NO = 999
REV_AT_EPOCH   = 99759
BSTAR          = .83083136E-3
MEAN_MOTION_DOT = .9143E-4
MEAN_MOTION_DDOT = 0

CCSDS_OMM_VERS = 2.0
CREATION_DATE  = 
ORIGINATOR     = 

OBJECT_NAME    = COSMOS 2428
OBJECT_ID      = 2007-029A
CENTER_NAME    = EARTH
REF_FRAME      = TEME
TIME_SYSTEM    = UTC
MEAN_ELEMENT_THEORY = SGP/SGP4

EPOCH          = 2025-11-13T15:22:11.030016
MEAN_MOTION    = 14.12888860
ECCENTRICITY   = .0002154
INCLINATION    = 70.9366
RA_OF_ASC_NODE = 86.9714
ARG_OF_PERICENTER = 75.2995
MEAN_ANOMALY   = 284.8364

EPHEMERIS_TYPE = 0
CLASSIFICATION_TYPE = U
NORAD_CAT_ID   = 31792
ELEMENT_SET_NO = 999
REV_AT_EPOCH   = 94770
BSTAR          = -.3531E-4
MEAN_MOTION_DOT = -.114E-5
MEAN_MOTION_DDOT = 0

CCSDS_OMM_VERS = 2.0
CREATION_DATE  = 
ORIGINATOR     = 

OBJECT_NAME    = SL-16 R/B
OBJECT_ID      = 2007-029B
CENTER_NAME    = EARTH
REF_FRAME      = TEME
TIME_SYSTEM    = UTC
MEAN_ELEMENT_THEORY = SGP/SGP4

EPOCH          = 2025-11-13T16:55:39.872640
MEAN_MOTION    = 14.14810223
ECCENTRICITY   = .00021373
INCLINATION    = 70.9768
RA_OF_ASC_NODE = 56.1870
ARG_OF_PERICENTER = 259.4954
MEAN_ANOMALY   = 268.1621

EPHEMERIS_TYPE = 0
CLASSIFICATION_TYPE = U
NORAD_CAT_ID   = 31793
ELEMENT_SET_NO = 999
REV_AT_EPOCH   = 94896
BSTAR          = .27094809E-3
MEAN_MOTION_DOT = .475E-5
MEAN_MOTION_DDOT = 0

CCSDS_OMM_VERS = 2.0
CREATION_DATE  = 
ORIGINATOR     = 

OBJECT_NAME    = KORONAS-FOTON
OBJECT_ID      = 2009-003A
CENTER_NAME    = EARTH
REF_FRAME      = TEME
TIME_SYSTEM    = UTC
MEAN_ELEMENT_THEORY = SGP/SGP4

EPOCH          = 2025-11-13T06:26:51.239904
MEAN_MOTION    = 15.40269024
ECCENTRICITY   = .00110885
INCLINATION    = 82.4336
RA_OF_ASC_NODE = 36.6159
ARG_OF_PERICENTER = 210.0271
MEAN_ANOMALY   = 150.0341

EPHEMERIS_TYPE = 0
CLASSIFICATION_TYPE = U
NORAD_CAT_ID   = 33504
ELEMENT_SET_NO = 999
REV_AT_EPOCH   = 92780
BSTAR          = .56508895E-3
MEAN_MOTION_DOT = .22855E-3
MEAN_MOTION_DDOT = 0

CCSDS_OMM_VERS = 2.0
CREATION_DATE  = 
ORIGINATOR     = 

OBJECT_NAME    = CZ-2C R/B
OBJECT_ID      = 2011-030B
CENTER_NAME    = EARTH
REF_FRAME      = TEME
TIME_SYSTEM    = UTC
MEAN_ELEMENT_THEORY = SGP/SGP4

EPOCH          = 2025-11-13T20:50:18.220416
MEAN_MOTION    = 14.80754443
ECCENTRICITY   = .00534005
INCLINATION    = 97.8363
RA_OF_ASC_NODE = 272.6248
ARG_OF_PERICENTER = 9.0733
MEAN_ANOMALY   = 10.7145

EPHEMERIS_TYPE = 0
CLASSIFICATION_TYPE = U
NORAD_CAT_ID   = 37731
ELEMENT_SET_NO = 999
REV_AT_EPOCH   = 77295
BSTAR          = .59389267E-3
MEAN_MOTION_DOT = .4634E-4
MEAN_MOTION_DDOT = 0

